NORAD_CAT_ID,OBJECT_NAME,OBJECT_TYPE,EPOCH,MEAN_MOTION,ECCENTRICITY,INCLINATION,RA_OF_ASC_NODE,ARG_OF_PERICENTER,MEAN_ANOMALY,BSTAR,MEAN_MOTION_DOT,MEAN_MOTION_DDOT,TLE_LINE0,TLE_LINE1,TLE_LINE2,SEMIMAJOR_AXIS,PERIOD,APOGEE,PERIGEE,DECAYED
53915.0,STARLINK-5017,PAYLOAD,2023-09-22 13:09:50,15.08858559,0.0001702,53.2179,30.6234,77.5694,282.5488,0.00064328,9.97e-05,0.0,0 STARLINK-5017,1 53915U 22119AF  23265.54850538  .00009970  00000-0  64328-3 0  9995,2 53915  53.2179  30.6234 0001702  77.5694 282.5488 15.08858559 56088,6917.824,95.436,540.866,538.511,0.0
53915.0,STARLINK-5017,PAYLOAD,2023-09-22 14:45:13,15.08857007,0.000131,53.2182,30.3268,77.4943,282.6195,0.00061433,9.507e-05,0.0,0 STARLINK-5017,1 53915U 22119AF  23265.61474446  .00009507  00000-0  61433-3 0  9993,2 53915  53.2182  30.3268 0001310  77.4943 282.6195 15.08857007 55674,6917.828,95.436,540.6,538.787,0.0
53915.0,STARLINK-5017,PAYLOAD,2023-09-23 11:25:14,15.0884918,0.000147,53.2182,26.4613,84.1294,275.9866,0.00050003,7.681e-05,0.0,0 STARLINK-5017,1 53915U 22119AF  23266.47586467  .00007681  00000-0  50003-3 0  9997,2 53915  53.2182  26.4613 0001470  84.1294 275.9866 15.08849180 55803,6917.852,95.437,540.734,538.7,0.0
53915.0,STARLINK-5017,PAYLOAD,2023-09-23 13:00:37,15.08846258,0.0001417,53.2182,26.1646,69.1579,290.9565,0.0002501,3.695e-05,0.0,0 STARLINK-5017,1 53915U 22119AF  23266.54210509  .00003695  00000-0  25010-3 0  9997,2 53915  53.2182  26.1646 0001417  69.1579 290.9565 15.08846258 56230,6917.861,95.437,540.707,538.746,0.0
53915.0,STARLINK-5017,PAYLOAD,2023-09-24 11:16:02,15.08837187,0.0001412,53.2192,22.0033,76.3519,283.763,0.00030095,4.505e-05,0.0,0 STARLINK-5017,1 53915U 22119AF  23267.46946925  .00004505  00000-0  30095-3 0  9997,2 53915  53.2192  22.0033 0001412  76.3519 283.7630 15.08837187 55957,6917.889,95.438,540.731,538.777,0.0
53915.0,STARLINK-5017,PAYLOAD,2023-09-24 12:51:25,15.08842632,0.0001518,53.2188,21.706,66.5377,293.5775,9.2099e-05,1.178e-05,0.0,0 STARLINK-5017,1 53915U 22119AF  23267.53570635  .00001178  00000-0  92099-4 0  9992,2 53915  53.2188  21.7060 0001518  66.5377 293.5775 15.08842632 56386,6917.872,95.437,540.787,538.687,0.0
53915.0,STARLINK-5017,PAYLOAD,2023-09-24 14:26:47,15.08846689,0.0001489,53.2199,21.4076,86.556,273.5602,0.00010962,1.457e-05,0.0,0 STARLINK-5017,1 53915U 22119AF  23267.60194321  .00001457  00000-0  10962-3 0  9992,2 53915  53.2199  21.4076 0001489  86.5560 273.5602 15.08846689 55972,6917.86,95.437,540.755,538.695,0.0
53915.0,STARLINK-5017,PAYLOAD,2023-09-25 07:56:02,15.08842057,0.0001574,53.2203,18.137,103.5853,256.5315,3.6497e-05,2.93e-06,0.0,0 STARLINK-5017,1 53915U 22119AF  23268.33058526  .00000293  00000-0  36497-4 0  9998,2 53915  53.2203  18.1370 0001574 103.5853 256.5315 15.08842057 56088,6917.874,95.437,540.828,538.65,0.0
53915.0,STARLINK-5017,PAYLOAD,2023-09-25 14:17:34,15.08852111,0.0001348,53.2193,16.9482,96.3462,263.7683,0.000179,2.563e-05,0.0,0 STARLINK-5017,1 53915U 22119AF  23268.59553921  .00002563  00000-0  17900-3 0  9994,2 53915  53.2193  16.9482 0001348  96.3462 263.7683 15.08852111 56541,6917.843,95.437,540.641,538.776,0.0
53915.0,STARLINK-5017,PAYLOAD,2023-09-26 10:57:36,15.08834615,0.0001629,53.2201,13.0821,104.664,255.4533,1.1174e-05,-1.1e-06,0.0,0 STARLINK-5017,1 53915U 22119AF  23269.45667032 -.00000110  00000-0  11174-4 0  9994,2 53915  53.2201  13.0821 0001629 104.6640 255.4533 15.08834615 56258,6917.897,95.438,540.889,538.635,0.0
53915.0,STARLINK-5017,PAYLOAD,2023-09-26 14:08:22,15.08834249,0.0001534,53.2199,12.487,95.5156,264.6011,3.4762e-06,-2.33e-06,0.0,0 STARLINK-5017,1 53915U 22119AF  23269.58915121 -.00000233  00000-0  34762-5 0  9998,2 53915  53.2199  12.4870 0001534  95.5156 264.6011 15.08834249 56690,6917.898,95.438,540.824,538.702,0.0
53915.0,STARLINK-5017,PAYLOAD,2023-09-27 12:23:46,15.08840743,0.0001379,53.2182,8.3216,94.22,265.895,-1.6533e-05,-5.51e-06,0.0,0 STARLINK-5017,1 53915U 22119AF  23270.51651084 -.00000551  00000-0 -16533-4 0  9997,2 53915  53.2182   8.3216 0001379  94.2200 265.8950 15.08840743 56830,6917.878,95.438,540.697,538.789,0.0
53915.0,STARLINK-5017,PAYLOAD,2023-09-27 13:59:09,15.08841131,0.0001466,53.2191,8.0251,91.3429,268.7731,5.0223e-05,5.11e-06,0.0,0 STARLINK-5017,1 53915U 22119AF  23270.58275139  .00000511  00000-0  50223-4 0  9995,2 53915  53.2191   8.0251 0001466  91.3429 268.7731 15.08841131 56420,6917.877,95.437,540.756,538.728,0.0
53915.0,STARLINK-5017,PAYLOAD,2023-09-28 12:14:34,15.08835384,0.0002027,53.2197,3.865,53.9452,306.1728,8.8243e-05,1.116e-05,0.0,0 STARLINK-5017,1 53915U 22119AF  23271.51012076  .00001116  00000-0  88243-4 0  9993,2 53915  53.2197   3.8650 0002027  53.9452 306.1728 15.08835384 56567,6917.894,95.438,541.162,538.357,0.0
53915.0,STARLINK-5017,PAYLOAD,2023-09-28 13:49:57,15.08839849,0.0001817,53.2198,3.5674,68.5315,291.5871,4.1413e-05,3.71e-06,0.0,0 STARLINK-5017,1 53915U 22119AF  23271.57635804  .00000371  00000-0  41413-4 0  9999,2 53915  53.2198   3.5674 0001817  68.5315 291.5871 15.08839849 56990,6917.881,95.438,541.003,538.489,0.0
53915.0,STARLINK-5017,PAYLOAD,2023-09-29 10:29:57,15.08849575,0.0001727,53.2192,359.7013,72.0807,288.0374,0.00025148,3.718e-05,0.0,0 STARLINK-5017,1 53915U 22119AF  23272.43747181  .00003718  00000-0  25148-3 0  9991,2 53915  53.2192 359.7013 0001727  72.0807 288.0374 15.08849575 56708,6917.851,95.437,540.911,538.521,0.0
53915.0,STARLINK-5017,PAYLOAD,2023-09-29 13:40:43,15.08859087,0.0001788,53.2191,359.1072,62.8479,297.2695,0.00026273,3.898e-05,0.0,0 STARLINK-5017,1 53915U 22119AF  23272.56994636  .00003898  00000-0  26273-3 0  9993,2 53915  53.2191 359.1072 0001788  62.8479 297.2695 15.08859087 57141,6917.822,95.436,540.924,538.45,0.0
53915.0,STARLINK-5017,PAYLOAD,2023-09-29 23:13:02,15.08851684,0.0001555,53.2197,357.3223,70.6043,289.5117,0.00020263,2.939e-05,0.0,0 STARLINK-5017,1 53915U 22119AF  23272.96738695  .00002939  00000-0  20263-3 0  9996,2 53915  53.2197 357.3223 0001555  70.6043 289.5117 15.08851684 56788,6917.845,95.437,540.785,538.634,0.0
53915.0,STARLINK-5017,PAYLOAD,2023-09-30 10:20:44,15.08843771,0.0001265,53.2192,355.2355,107.4879,252.6252,-3.1808e-05,-7.94e-06,0.0,0 STARLINK-5017,1 53915U 22119AF  23273.43106764 -.00000794  00000-0 -31808-4 0  9992,2 53915  53.2192 355.2355 0001265 107.4879 252.6252 15.08843771 56857,6917.869,95.437,540.609,538.859,0.0
53915.0,STARLINK-5017,PAYLOAD,2023-10-01 11:46:53,15.08855695,0.0001507,53.2187,350.4806,92.0647,268.0517,6.9184e-05,8.14e-06,0.0,0 STARLINK-5017,1 53915U 22119AF  23274.49090070  .00000814  00000-0  69184-4 0  9990,2 53915  53.2187 350.4806 0001507  92.0647 268.0517 15.08855695 57012,6917.832,95.437,540.74,538.655,0.0
53915.0,STARLINK-5017,PAYLOAD,2023-10-02 11:37:42,15.08826298,0.0001356,53.2179,346.0221,77.801,282.3134,-4.8014e-05,-1.052e-05,0.0,0 STARLINK-5017,1 53915U 22119AF  23275.48451950 -.00001052  00000-0 -48014-4 0  9994,2 53915  53.2179 346.0221 0001356  77.8010 282.3134 15.08826298 57169,6917.922,95.438,540.725,538.849,0.0
53915.0,STARLINK-5017,PAYLOAD,2023-10-02 16:23:51,15.08832729,0.0001423,53.2181,345.1261,76.4899,283.6252,4.4293e-05,4.17e-06,0.0,0 STARLINK-5017,1 53915U 22119AF  23275.68323753  .00000417  00000-0  44293-4 0  9992,2 53915  53.2181 345.1261 0001423  76.4899 283.6252 15.08832729 57612,6917.903,95.438,540.752,538.783,0.0
53915.0,STARLINK-5017,PAYLOAD,2023-10-03 11:28:29,15.08838254,0.0001449,53.2175,341.5625,82.596,277.5197,0.00016968,2.413e-05,0.0,0 STARLINK-5017,1 53915U 22119AF  23276.47812059  .00002413  00000-0  16968-3 0  9997,2 53915  53.2175 341.5625 0001449  82.5960 277.5197 15.08838254 57310,6917.886,95.438,540.753,538.748,0.0
53915.0,STARLINK-5017,PAYLOAD,2023-10-04 11:19:16,15.08852324,0.0001615,53.2186,337.1028,81.3596,278.7579,0.00043889,6.706e-05,0.0,0 STARLINK-5017,1 53915U 22119AF  23277.47171846  .00006706  00000-0  43889-3 0  9991,2 53915  53.2186 337.1028 0001615  81.3596 278.7579 15.08852324 57880,6917.843,95.437,540.825,538.59,0.0
53915.0,STARLINK-5017,PAYLOAD,2023-10-04 20:51:35,15.08847017,0.0001601,53.2184,335.3183,88.5956,271.522,0.00017934,2.568e-05,0.0,0 STARLINK-5017,1 53915U 22119AF  23277.86915907  .00002568  00000-0  17934-3 0  9992,2 53915  53.2184 335.3183 0001601  88.5956 271.5220 15.08847017 57948,6917.859,95.437,540.831,538.616,0.0
53915.0,STARLINK-5017,PAYLOAD,2023-10-05 11:10:03,15.08849155,0.0001688,53.2183,332.6403,90.4193,269.6992,0.00013796,1.909e-05,0.0,0 STARLINK-5017,1 53915U 22119AF  23278.46531647  .00001909  00000-0  13796-3 0  9994,2 53915  53.2183 332.6403 0001688  90.4193 269.6992 15.08849155 58032,6917.852,95.437,540.885,538.55,0.0
53915.0,STARLINK-5017,PAYLOAD,2023-10-05 20:42:22,15.08843239,0.0001675,53.2165,330.8514,73.7649,286.3527,8.9637e-05,1.139e-05,0.0,0 STARLINK-5017,1 53915U 22119AF  23278.86275691  .00001139  00000-0  89637-4 0  9995,2 53915  53.2165 330.8514 0001675  73.7649 286.3527 15.08843239 58094,6917.87,95.437,540.894,538.577,0.0
53915.0,STARLINK-5017,PAYLOAD,2023-10-06 03:03:55,15.08837591,0.0001659,53.2176,329.6674,83.4787,276.6394,-5.2061e-05,-1.116e-05,0.0,0 STARLINK-5017,1 53915U 22119AF  23279.12772003 -.00001116  00000-0 -52061-4 0  9992,2 53915  53.2176 329.6674 0001659  83.4787 276.6394 15.08837591 57718,6917.888,95.438,540.9,538.605,0.0
53915.0,STARLINK-5017,PAYLOAD,2023-10-06 12:36:14,15.08841213,0.0001675,53.2176,327.8824,80.1641,279.954,0.0001938,2.798e-05,0.0,0 STARLINK-5017,1 53915U 22119AF  23279.52516207  .00002798  00000-0  19380-3 0  9999,2 53915  53.2176 327.8824 0001675  80.1641 279.9540 15.08841213 58194,6917.877,95.437,540.9,538.583,0.0
53915.0,STARLINK-5017,PAYLOAD,2023-10-06 20:33:09,15.08839943,0.0001432,53.2172,326.3953,88.9454,271.1702,0.00024443,3.604e-05,0.0,0 STARLINK-5017,1 53915U 22119AF  23279.85636277  .00003604  00000-0  24443-3 0  9998,2 53915  53.2172 326.3953 0001432  88.9454 271.1702 15.08839943 58243,6917.881,95.438,540.736,538.755,0.0
